[{"OBJECT_NAME":"STARLINK-33863","OBJECT_ID":"2025-094A","EPOCH":"2026-03-09T20:37:26.193216","MEAN_MOTION":14.98336063,"ECCENTRICITY":0.00031623,"INCLINATION":70.0016,"RA_OF_ASC_NODE":234.2309,"ARG_OF_PERICENTER":273.215,"MEAN_ANOMALY":86.8647,"EPHEMERIS_TYPE":0,"CLASSIFICATION_TYPE":"U","NORAD_CAT_ID":63864,"ELEMENT_SET_NO":999,"REV_AT_EPOCH":4722,"BSTAR":0.00097753967,"MEAN_MOTION_DOT":0.00011592,"MEAN_MOTION_DDOT":0},{"OBJECT_NAME":"COSMOS 2251 DEB","OBJECT_ID":"1993-036LH","EPOCH":"2026-03-09T22:01:19.578144","MEAN_MOTION":14.80785224,"ECCENTRICITY":0.00862249,"INCLINATION":74.0187,"RA_OF_ASC_NODE":230.5997,"ARG_OF_PERICENTER":329.6727,"MEAN_ANOMALY":156.0627,"EPHEMERIS_TYPE":0,"CLASSIFICATION_TYPE":"U","NORAD_CAT_ID":34136,"ELEMENT_SET_NO":999,"REV_AT_EPOCH":91300,"BSTAR":0.00043945141,"MEAN_MOTION_DOT":3.573e-5,"MEAN_MOTION_DDOT":0}]
